NORAD_CAT_ID,OBJECT_NAME,OBJECT_TYPE,EPOCH,MEAN_MOTION,ECCENTRICITY,INCLINATION,RA_OF_ASC_NODE,ARG_OF_PERICENTER,MEAN_ANOMALY,BSTAR,MEAN_MOTION_DOT,MEAN_MOTION_DDOT,TLE_LINE0,TLE_LINE1,TLE_LINE2,SEMIMAJOR_AXIS,PERIOD,APOGEE,PERIGEE,DECAYED
52461.0,STARLINK-3900,PAYLOAD,2023-04-17 05:12:10,15.08839469,0.000146,53.2165,116.3021,89.9765,270.1395,5.3518e-05,5.64e-06,0.0,0 STARLINK-3900,1 52461U 22049L   23107.21678447  .00000564  00000-0  53518-4 0  9998,2 52461  53.2165 116.3021 0001460  89.9765 270.1395 15.08839469 52907,6917.882,95.438,540.757,538.737,0.0
52461.0,STARLINK-3900,PAYLOAD,2023-04-17 06:47:33,15.08839653,0.0001281,53.2164,116.004,93.1373,266.9765,5.7252e-05,6.23e-06,0.0,0 STARLINK-3900,1 52461U 22049L   23107.28302362  .00000623  00000-0  57252-4 0  9990,2 52461  53.2164 116.0040 0001281  93.1373 266.9765 15.08839653 52759,6917.881,95.438,540.633,538.86,0.0
52461.0,STARLINK-3900,PAYLOAD,2023-04-17 17:55:15,15.08839584,0.0001267,53.216,113.9217,93.5607,266.553,6.0994e-05,6.83e-06,0.0,0 STARLINK-3900,1 52461U 22049L   23107.74670382  .00000683  00000-0  60994-4 0  9994,2 52461  53.2160 113.9217 0001267  93.5607 266.5530 15.08839584 52822,6917.882,95.438,540.623,538.87,0.0
52461.0,STARLINK-3900,PAYLOAD,2023-04-18 06:38:20,15.08838107,0.0001259,53.2161,111.5425,93.7573,266.3563,7.2292e-05,8.63e-06,0.0,0 STARLINK-3900,1 52461U 22049L   23108.27662552  .00000863  00000-0  72292-4 0  9997,2 52461  53.2161 111.5425 0001259  93.7573 266.3563 15.08838107 52906,6917.886,95.438,540.622,538.88,0.0
52461.0,STARLINK-3900,PAYLOAD,2023-04-18 17:46:02,15.08843,0.0001274,53.2157,109.4612,92.5223,267.5915,6.738e-05,7.85e-06,0.0,0 STARLINK-3900,1 52461U 22049L   23108.74030257  .00000785  00000-0  67380-4 0  9995,2 52461  53.2157 109.4612 0001274  92.5223 267.5915 15.08843000 52970,6917.871,95.437,540.618,538.855,0.0
52461.0,STARLINK-3900,PAYLOAD,2023-04-19 06:29:07,15.08843914,0.0001476,53.2159,107.0821,90.2911,269.8251,0.00011166,1.49e-05,0.0,0 STARLINK-3900,1 52461U 22049L   23109.27022232  .00001490  00000-0  11166-3 0  9992,2 52461  53.2159 107.0821 0001476  90.2911 269.8251 15.08843914 53053,6917.868,95.437,540.755,538.712,0.0
52461.0,STARLINK-3900,PAYLOAD,2023-04-20 06:19:54,15.08834246,0.0001035,53.2163,102.622,91.4208,268.6903,0.00016636,2.36e-05,0.0,0 STARLINK-3900,1 52461U 22049L   23110.26382733  .00002360  00000-0  16636-3 0  9992,2 52461  53.2163 102.6220 0001035  91.4208 268.6903 15.08834246 53368,6917.898,95.438,540.479,539.047,0.0
52461.0,STARLINK-3900,PAYLOAD,2023-04-20 15:52:13,15.08836733,0.0001152,53.2156,100.8375,88.3379,271.7745,2.4385e-05,1e-06,0.0,0 STARLINK-3900,1 52461U 22049L   23110.66126933  .00000100  00000-0  24385-4 0  9995,2 52461  53.2156 100.8375 0001152  88.3379 271.7745 15.08836733 53266,6917.89,95.438,540.552,538.958,0.0
52461.0,STARLINK-3900,PAYLOAD,2023-04-21 06:10:42,15.08830742,0.0001121,53.2159,98.1608,90.1072,270.0049,-7.5675e-06,-4.08e-06,0.0,0 STARLINK-3900,1 52461U 22049L   23111.25743583 -.00000408  00000-0 -75675-5 0  9999,2 52461  53.2159  98.1608 0001121  90.1072 270.0049 15.08830742 53357,6917.909,95.438,540.549,538.998,0.0
52461.0,STARLINK-3900,PAYLOAD,2023-04-21 15:43:01,15.08834305,0.0001212,53.2169,96.3787,101.363,258.7498,3.3115e-05,2.39e-06,0.0,0 STARLINK-3900,1 52461U 22049L   23111.65487362  .00000239  00000-0  33115-4 0  9995,2 52461  53.2169  96.3787 0001212 101.3630 258.7498 15.08834305 53419,6917.898,95.438,540.601,538.924,0.0
52461.0,STARLINK-3900,PAYLOAD,2023-04-22 15:33:47,15.08839337,0.0001078,53.2165,91.9158,90.6484,269.4631,9.3604e-05,1.202e-05,0.0,0 STARLINK-3900,1 52461U 22049L   23112.64847055  .00001202  00000-0  93604-4 0  9994,2 52461  53.2165  91.9158 0001078  90.6484 269.4631 15.08839337 53569,6917.882,95.438,540.493,539.002,0.0
52461.0,STARLINK-3900,PAYLOAD,2023-04-23 09:03:02,15.08837923,0.0001136,53.2168,88.645,94.1002,266.012,5.9855e-05,6.65e-06,0.0,0 STARLINK-3900,1 52461U 22049L   23113.37711541  .00000665  00000-0  59855-4 0  9997,2 52461  53.2168  88.6450 0001136  94.1002 266.0120 15.08837923 53835,6917.887,95.438,540.538,538.966,0.0
52461.0,STARLINK-3900,PAYLOAD,2023-04-24 07:18:25,15.08861083,0.0001462,53.2183,84.4812,84.0347,276.0811,0.00020797,3.025e-05,0.0,0 STARLINK-3900,1 52461U 22049L   23114.30445728  .00003025  00000-0  20797-3 0  9997,2 52461  53.2183  84.4812 0001462  84.0347 276.0811 15.08861083 53810,6917.816,95.436,540.692,538.67,0.0
52461.0,STARLINK-3900,PAYLOAD,2023-04-25 03:58:25,15.08853884,0.000141,53.2171,80.6143,92.0061,268.1093,0.00011402,1.528e-05,0.0,0 STARLINK-3900,1 52461U 22049L   23115.16557628  .00001528  00000-0  11402-3 0  9994,2 52461  53.2171  80.6143 0001410  92.0061 268.1093 15.08853884 54104,6917.838,95.437,540.678,538.728,0.0
52461.0,STARLINK-3900,PAYLOAD,2023-04-25 07:09:11,15.08853977,0.0001348,53.2168,80.0198,92.6095,267.5051,0.00010794,1.431e-05,0.0,0 STARLINK-3900,1 52461U 22049L   23115.29805506  .00001431  00000-0  10794-3 0  9995,2 52461  53.2168  80.0198 0001348  92.6095 267.5051 15.08853977 53960,6917.838,95.437,540.635,538.77,0.0
52461.0,STARLINK-3900,PAYLOAD,2023-04-26 02:13:52,15.08822944,0.0001232,53.2177,76.454,83.6843,276.4289,-0.00017909,-3.136e-05,0.0,0 STARLINK-3900,1 52461U 22049L   23116.09296546 -.00003136  00000-0 -17909-3 0  9993,2 52461  53.2177  76.4540 0001232  83.6843 276.4289 15.08822944 54247,6917.933,95.439,540.65,538.945,0.0
52461.0,STARLINK-3900,PAYLOAD,2023-04-26 07:00:01,15.08823386,0.0001325,53.2168,75.5619,84.2534,275.8609,-0.00016843,-2.966e-05,0.0,0 STARLINK-3900,1 52461U 22049L   23116.29168682 -.00002966  00000-0 -16843-3 0  9990,2 52461  53.2168  75.5619 0001325  84.2534 275.8609 15.08823386 54117,6917.931,95.439,540.713,538.88,0.0
52461.0,STARLINK-3900,PAYLOAD,2023-04-27 03:40:02,15.08833379,0.0001028,53.2172,71.6965,79.8796,280.2312,-7.7286e-05,-1.517e-05,0.0,0 STARLINK-3900,1 52461U 22049L   23117.15280379 -.00001517  00000-0 -77286-4 0  9994,2 52461  53.2172  71.6965 0001028  79.8796 280.2312 15.08833379 54409,6917.901,95.438,540.477,539.054,0.0
52461.0,STARLINK-3900,PAYLOAD,2023-04-27 06:50:48,15.08835917,0.0001044,53.217,71.1011,82.367,277.7441,-3.1038e-05,-7.82e-06,0.0,0 STARLINK-3900,1 52461U 22049L   23117.28528171 -.00000782  00000-0 -31038-4 0  9991,2 52461  53.2170  71.1011 0001044  82.3670 277.7441 15.08835917 54260,6917.893,95.438,540.48,539.036,0.0
52461.0,STARLINK-3900,PAYLOAD,2023-04-28 03:30:48,15.08847398,9.84e-05,53.217,67.2378,96.828,263.2824,0.00041409,6.31e-05,0.0,0 STARLINK-3900,1 52461U 22049L   23118.14639014  .00006310  00000-0  41409-3 0  9999,2 52461  53.2170  67.2378 0000984  96.8280 263.2824 15.08847398 54554,6917.858,95.437,540.403,539.042,0.0
52461.0,STARLINK-3900,PAYLOAD,2023-04-28 13:03:07,15.08842718,0.0001196,53.2168,65.4519,86.4736,273.6393,0.00029338,4.385e-05,0.0,0 STARLINK-3900,1 52461U 22049L   23118.54384143  .00004385  00000-0  29338-3 0  9990,2 52461  53.2168  65.4519 0001196  86.4736 273.6393 15.08842718 54619,6917.872,95.437,540.564,538.91,0.0
52461.0,STARLINK-3900,PAYLOAD,2023-04-29 04:56:58,15.08846709,0.0001054,53.2181,62.4811,104.6258,255.4851,-6.1166e-05,-1.261e-05,0.0,0 STARLINK-3900,1 52461U 22049L   23119.20623465 -.00001261  00000-0 -61166-4 0  9995,2 52461  53.2181  62.4811 0001054 104.6258 255.4851 15.08846709 54555,6917.86,95.437,540.454,538.996,0.0
52461.0,STARLINK-3900,PAYLOAD,2023-04-29 20:50:50,15.08841082,0.0001029,53.219,59.5071,107.3789,252.7315,-1.1906e-05,-4.77e-06,0.0,0 STARLINK-3900,1 52461U 22049L   23119.86863485 -.00000477  00000-0 -11906-4 0  9990,2 52461  53.2190  59.5071 0001029 107.3789 252.7315 15.08841082 54814,6917.877,95.437,540.454,539.03,0.0
52461.0,STARLINK-3900,PAYLOAD,2023-04-30 04:47:45,15.08853091,8.94e-05,53.2178,58.0188,94.3951,265.7143,0.00015026,2.105e-05,0.0,0 STARLINK-3900,1 52461U 22049L   23120.19983010  .00002105  00000-0  15026-3 0  9999,2 52461  53.2178  58.0188 0000894  94.3951 265.7143 15.08853091 54869,6917.84,95.437,540.324,539.087,0.0
52461.0,STARLINK-3900,PAYLOAD,2023-04-30 19:06:14,15.08840878,0.0001467,53.218,55.3446,78.4052,281.7104,0.00017643,2.521e-05,0.0,0 STARLINK-3900,1 52461U 22049L   23120.79599808  .00002521  00000-0  17643-3 0  9992,2 52461  53.2180  55.3446 0001467  78.4052 281.7104 15.08840878 54955,6917.878,95.437,540.758,538.728,0.0
52461.0,STARLINK-3900,PAYLOAD,2023-05-01 04:38:33,15.0883523,6.7e-05,53.2172,53.5552,96.9429,263.1639,6.8345e-05,8e-06,0.0,0 STARLINK-3900,1 52461U 22049L   23121.19344061  .00000800  00000-0  68345-4 0  9990,2 52461  53.2172  53.5552 0000670  96.9429 263.1639 15.08835230 55013,6917.895,95.438,540.223,539.296,0.0
52461.0,STARLINK-3900,PAYLOAD,2023-05-02 04:29:20,15.0885285,7.94e-05,53.2171,49.0946,88.835,271.2734,0.00050403,7.746e-05,0.0,0 STARLINK-3900,1 52461U 22049L   23122.18703787  .00007746  00000-0  50403-3 0  9995,2 52461  53.2171  49.0946 0000794  88.8350 271.2734 15.08852850 55168,6917.841,95.437,540.255,539.157,0.0
52461.0,STARLINK-3900,PAYLOAD,2023-05-03 04:20:06,15.08849521,7.89e-05,53.2169,44.6337,104.7524,255.3556,0.00023833,3.508e-05,0.0,0 STARLINK-3900,1 52461U 22049L   23123.18063493  .00003508  00000-0  23833-3 0  9998,2 52461  53.2169  44.6337 0000789 104.7524 255.3556 15.08849521 55318,6917.851,95.437,540.262,539.17,0.0
52461.0,STARLINK-3900,PAYLOAD,2023-05-03 18:38:35,15.08842646,9.32e-05,53.2187,41.9597,84.2282,275.8816,-2.2016e-05,-6.38e-06,0.0,0 STARLINK-3900,1 52461U 22049L   23123.77679821 -.00000638  00000-0 -22016-4 0  9997,2 52461  53.2187  41.9597 0000932  84.2282 275.8816 15.08842646 55406,6917.872,95.437,540.382,539.093,0.0
52461.0,STARLINK-3900,PAYLOAD,2023-05-03 21:49:21,15.08838844,5.86e-05,53.2176,41.3648,95.6607,264.4452,-0.00010423,-1.946e-05,0.0,0 STARLINK-3900,1 52461U 22049L   23123.90927910 -.00001946  00000-0 -10423-3 0  9998,2 52461  53.2176  41.3648 0000586  95.6607 264.4452 15.08838844 55266,6917.884,95.438,540.154,539.344,0.0
